{"type":"FeatureCollection","name":"California intercity rail stations","metadata":{"source":"California_Rail_Stations(1).shp","source_crs":"EPSG:3857","output_crs":"EPSG:4326","filter":"PASS_OP = Amtrak"},"features":[{"type":"Feature","geometry":{"type":"Point","coordinates":[-122.1981965,37.7525202]},"properties":{"station_name":"Oakland Coliseum","code":"OAC","routes":"Capitol Corridor","location":"Amtrak Station","address":"700 Seventy-third Avenue","mode":"intercity_rail_station","source":"California_Rail_Stations.shp; PASS_OP = Amtrak"}},{"type":"Feature","geometry":{"type":"Point","coordinates":[-119.6925955,34.4143]},"properties":{"station_name":"Santa Barbara","code":"SBA","routes":"Coast Starlight,Pacific Surfliner","location":"Amtrak Station","address":"209 State Street","mode":"intercity_rail_station","source":"California_Rail_Stations.shp; PASS_OP = Amtrak"}},{"type":"Feature","geometry":{"type":"Point","coordinates":[-121.9024873,37.3302069]},"properties":{"station_name":"San Jose","code":"SJC","routes":"Capitol Corridor,Coast Starlight","location":"Amtrak/Caltrain Station","address":"65 Cahill St.","mode":"intercity_rail_station","source":"California_Rail_Stations.shp; PASS_OP = Amtrak"}},{"type":"Feature","geometry":{"type":"Point","coordinates":[-121.9674299,37.4073413]},"properties":{"station_name":"Santa Clara/Great America","code":"GAC","routes":"Capitol Corridor","location":"Amtrak Station","address":"Stars & Stripes Dr at Tasman Dr O'pass","mode":"intercity_rail_station","source":"California_Rail_Stations.shp; PASS_OP = Amtrak"}},{"type":"Feature","geometry":{"type":"Point","coordinates":[-122.3928931,40.5826762]},"properties":{"station_name":"Redding","code":"RDD","routes":"Coast Starlight","location":"Amtrak Station","address":"1620 Yuba St.","mode":"intercity_rail_station","source":"California_Rail_Stations.shp; PASS_OP = Amtrak"}},{"type":"Feature","geometry":{"type":"Point","coordinates":[-122.2705619,41.2124531]},"properties":{"station_name":"Dunsmuir","code":"DUN","routes":"Coast Starlight","location":"Amtrak Station","address":"5750 Sacramento Ave.","mode":"intercity_rail_station","source":"California_Rail_Stations.shp; PASS_OP = Amtrak"}},{"type":"Feature","geometry":{"type":"Point","coordinates":[-122.0406278,38.2434585]},"properties":{"station_name":"Suisun/Fairfield","code":"SUI","routes":"Capitol Corridor","location":"Amtrak Station","address":"177 Main St. (Under Highway 12)","mode":"intercity_rail_station","source":"California_Rail_Stations.shp; PASS_OP = Amtrak"}},{"type":"Feature","geometry":{"type":"Point","coordinates":[-120.9133589,37.6672148]},"properties":{"station_name":"Modesto","code":"MOD","routes":"San Joaquin","location":"Amtrak Station","address":"Held Dr. & Briggsmore Ave.","mode":"intercity_rail_station","source":"California_Rail_Stations.shp; PASS_OP = Amtrak"}},{"type":"Feature","geometry":{"type":"Point","coordinates":[-120.7974752,37.5273242]},"properties":{"station_name":"Turlock/Denair","code":"TRK","routes":"San Joaquin","location":"Amtrak Station","address":"Sante Fe Ave. at Elm St. (Denair)","mode":"intercity_rail_station","source":"California_Rail_Stations.shp; PASS_OP = Amtrak"}},{"type":"Feature","geometry":{"type":"Point","coordinates":[-119.1761218,34.199416]},"properties":{"station_name":"Oxnard","code":"OXN","routes":"Coast Starlight,Pacific Surfliner","location":"Transportation Center","address":"201 E. 4th St.","mode":"intercity_rail_station","source":"California_Rail_Stations.shp; PASS_OP = Amtrak"}},{"type":"Feature","geometry":{"type":"Point","coordinates":[-118.6955583,34.2703193]},"properties":{"station_name":"Simi Valley","code":"SIM","routes":"Coast Starlight,Pacific Surfliner","location":"Amtrak/Metrolink Station","address":"5000 Los Angeles Ave. near Stearns","mode":"intercity_rail_station","source":"California_Rail_Stations.shp; PASS_OP = Amtrak"}},{"type":"Feature","geometry":{"type":"Point","coordinates":[-119.297729,34.276892]},"properties":{"station_name":"Ventura","code":"VEC","routes":"Pacific Surfliner","location":"Amtrak Station","address":"Harbor & Figueroa (County Fairgrnds)","mode":"intercity_rail_station","source":"California_Rail_Stations.shp; PASS_OP = Amtrak"}},{"type":"Feature","geometry":{"type":"Point","coordinates":[-119.0334295,34.2172216]},"properties":{"station_name":"Camarillo","code":"CML","routes":"Pacific Surfliner","location":"Amtrak/Metrolink Station","address":"30 Lewis Rd.","mode":"intercity_rail_station","source":"California_Rail_Stations.shp; PASS_OP = Amtrak"}},{"type":"Feature","geometry":{"type":"Point","coordinates":[-118.8778152,34.2848534]},"properties":{"station_name":"Moorpark","code":"MPK","routes":"Pacific Surfliner","location":"Amtrak/Metrolink Station","address":"High St. at Moorpark Ave.","mode":"intercity_rail_station","source":"California_Rail_Stations.shp; PASS_OP = Amtrak"}},{"type":"Feature","geometry":{"type":"Point","coordinates":[-121.7385742,38.5437231]},"properties":{"station_name":"Davis","code":"DAV","routes":"California Zephyr,Capitol Corridor,Coast Starlight","location":"Amtrak Station","address":"840 2nd St.","mode":"intercity_rail_station","source":"California_Rail_Stations.shp; PASS_OP = Amtrak"}},{"type":"Feature","geometry":{"type":"Point","coordinates":[-117.0270361,34.9041277]},"properties":{"station_name":"Barstow","code":"BAR","routes":"Southwest Chief","location":"Amtrak/Harvey House","address":"685 N. 1st Ave.","mode":"intercity_rail_station","source":"California_Rail_Stations.shp; PASS_OP = Amtrak"}},{"type":"Feature","geometry":{"type":"Point","coordinates":[-117.2950679,34.5380957]},"properties":{"station_name":"Victorville","code":"VRV","routes":"Southwest Chief","location":"Victor Valley Trans. Center","address":"16838 D St.","mode":"intercity_rail_station","source":"California_Rail_Stations.shp; PASS_OP = Amtrak"}},{"type":"Feature","geometry":{"type":"Point","coordinates":[-119.8424686,34.4374924]},"properties":{"station_name":"Goleta","code":"GTA","routes":"Pacific Surfliner","location":"Amtrak Station","address":"North End of South Patera Lane","mode":"intercity_rail_station","source":"California_Rail_Stations.shp; PASS_OP = Amtrak"}},{"type":"Feature","geometry":{"type":"Point","coordinates":[-122.300875,37.867418]},"properties":{"station_name":"Berkeley","code":"BKY","routes":"Capitol Corridor","location":"Amtrak Station","address":"University Ave. & 3rd St.","mode":"intercity_rail_station","source":"California_Rail_Stations.shp; PASS_OP = Amtrak"}},{"type":"Feature","geometry":{"type":"Point","coordinates":[-122.0073545,37.5588989]},"properties":{"station_name":"Fremont/Centerville","code":"FMT","routes":"Capitol Corridor","location":"Amtrak Station","address":"37260 Fremont Blvd. at Peralta Blvd.","mode":"intercity_rail_station","source":"California_Rail_Stations.shp; PASS_OP = Amtrak"}},{"type":"Feature","geometry":{"type":"Point","coordinates":[-122.2714804,37.7941521]},"properties":{"station_name":"Oakland","code":"OKJ","routes":"Capitol Corridor,Coast Starlight,San Joaquin","location":"Amtrak Station","address":"245 2nd St.","mode":"intercity_rail_station","source":"California_Rail_Stations.shp; PASS_OP = Amtrak"}},{"type":"Feature","geometry":{"type":"Point","coordinates":[-122.1046177,37.6704544]},"properties":{"station_name":"Hayward","code":"HAY","routes":"Capitol Corridor","location":"Amtrak Station","address":"22555 Meekland Ave. at \"A\" St.","mode":"intercity_rail_station","source":"California_Rail_Stations.shp; PASS_OP = Amtrak"}},{"type":"Feature","geometry":{"type":"Point","coordinates":[-122.2914629,37.8405252]},"properties":{"station_name":"Emeryville","code":"EMY","routes":"California Zephyr,Capitol Corridor,Coast Starlight,San Joaquin","location":"Amtrak Station","address":"5885 Horton St.","mode":"intercity_rail_station","source":"California_Rail_Stations.shp; PASS_OP = Amtrak"}},{"type":"Feature","geometry":{"type":"Point","coordinates":[-121.845459,39.723244]},"properties":{"station_name":"Chico","code":"CIC","routes":"Coast Starlight","location":"Amtrak Station","address":"W. 5th & Orange St.","mode":"intercity_rail_station","source":"California_Rail_Stations.shp; PASS_OP = Amtrak"}},{"type":"Feature","geometry":{"type":"Point","coordinates":[-122.1385474,38.0179351]},"properties":{"station_name":"Martinez","code":"MTZ","routes":"California Zephyr,Capitol Corridor,Coast Starlight,San Joaquin","location":"Amtrak Station","address":"601 Marina Vista Dr.","mode":"intercity_rail_station","source":"California_Rail_Stations.shp; PASS_OP = Amtrak"}},{"type":"Feature","geometry":{"type":"Point","coordinates":[-122.3534009,37.9363632]},"properties":{"station_name":"Richmond","code":"RIC","routes":"Capitol Corridor,San Joaquin","location":"Amtrak/BART Station","address":"16th & MacDonald Ave.","mode":"intercity_rail_station","source":"California_Rail_Stations.shp; PASS_OP = Amtrak"}},{"type":"Feature","geometry":{"type":"Point","coordinates":[-121.8158768,38.0178075]},"properties":{"station_name":"Antioch","code":"ACA","routes":"San Joaquin","location":"Amtrak Station","address":"Foot of \"I\" Street","mode":"intercity_rail_station","source":"California_Rail_Stations.shp; PASS_OP = Amtrak"}},{"type":"Feature","geometry":{"type":"Point","coordinates":[-119.783374,36.7386538]},"properties":{"station_name":"Fresno","code":"FNO","routes":"San Joaquin","location":"Amtrak Station","address":"2650 Tulare St., Bldg. B","mode":"intercity_rail_station","source":"California_Rail_Stations.shp; PASS_OP = Amtrak"}},{"type":"Feature","geometry":{"type":"Point","coordinates":[-119.0083467,35.373262]},"properties":{"station_name":"Bakersfield","code":"BFD","routes":"San Joaquin","location":"Amtrak Station","address":"601 Truxton Ave.","mode":"intercity_rail_station","source":"California_Rail_Stations.shp; PASS_OP = Amtrak"}},{"type":"Feature","geometry":{"type":"Point","coordinates":[-119.3324544,35.5941615]},"properties":{"station_name":"Wasco","code":"WAC","routes":"San Joaquin","location":"Amtrak Station","address":"700 G St.","mode":"intercity_rail_station","source":"California_Rail_Stations.shp; PASS_OP = Amtrak"}},{"type":"Feature","geometry":{"type":"Point","coordinates":[-119.557303,36.098039]},"properties":{"station_name":"Corcoran","code":"COC","routes":"San Joaquin","location":"Amtrak Station","address":"Whitely & Otis Ave.","mode":"intercity_rail_station","source":"California_Rail_Stations.shp; PASS_OP = Amtrak"}},{"type":"Feature","geometry":{"type":"Point","coordinates":[-119.6515372,36.3257083]},"properties":{"station_name":"Hanford","code":"HNF","routes":"San Joaquin","location":"Amtrak Station","address":"200 Santa Fe Ave. #A","mode":"intercity_rail_station","source":"California_Rail_Stations.shp; PASS_OP = Amtrak"}},{"type":"Feature","geometry":{"type":"Point","coordinates":[-118.3525284,34.1926903]},"properties":{"station_name":"Burbank - Bob Hope Airport","code":"BUR","routes":"Pacific Surfliner","location":"Amtrak Station","address":"3750 Empire Ave.","mode":"intercity_rail_station","source":"California_Rail_Stations.shp; PASS_OP = Amtrak"}},{"type":"Feature","geometry":{"type":"Point","coordinates":[-118.2374246,34.056342]},"properties":{"station_name":"Los Angeles","code":"LAX","routes":"Coast Starlight,Pacific Surfliner,Southwest Chief,Sunset Limited,Texas Eagle","location":"Union Station","address":"800 N. Alameda St.","mode":"intercity_rail_station","source":"California_Rail_Stations.shp; PASS_OP = Amtrak"}},{"type":"Feature","geometry":{"type":"Point","coordinates":[-118.4483186,34.2115037]},"properties":{"station_name":"Van Nuys","code":"VNC","routes":"Coast Starlight,Pacific Surfliner","location":"Amtrak/Metrolink Station","address":"7724 Van Nuys Blvd.","mode":"intercity_rail_station","source":"California_Rail_Stations.shp; PASS_OP = Amtrak"}},{"type":"Feature","geometry":{"type":"Point","coordinates":[-118.5994518,34.2529197]},"properties":{"station_name":"Chatsworth","code":"CWT","routes":"Pacific Surfliner","location":"Amtrak/Metrolink Station","address":"10040 Old Depot Plaza Rd.","mode":"intercity_rail_station","source":"California_Rail_Stations.shp; PASS_OP = Amtrak"}},{"type":"Feature","geometry":{"type":"Point","coordinates":[-118.2590388,34.1236379]},"properties":{"station_name":"Glendale","code":"GDL","routes":"Pacific Surfliner","location":"Amtrak/Metrolink Station","address":"Railroad & Cerritos Ave.","mode":"intercity_rail_station","source":"California_Rail_Stations.shp; PASS_OP = Amtrak"}},{"type":"Feature","geometry":{"type":"Point","coordinates":[-117.7503857,34.0652636]},"properties":{"station_name":"Pomona","code":"POS","routes":"Sunset Limited,Texas Eagle","location":"Amtrak Station","address":"156 W. Commonwealth St.","mode":"intercity_rail_station","source":"California_Rail_Stations.shp; PASS_OP = Amtrak"}},{"type":"Feature","geometry":{"type":"Point","coordinates":[-120.0744824,37.0228413]},"properties":{"station_name":"Madera","code":"MDR","routes":"San Joaquin","location":"Amtrak Station","address":"18770 Road 26","mode":"intercity_rail_station","source":"California_Rail_Stations.shp; PASS_OP = Amtrak"}},{"type":"Feature","geometry":{"type":"Point","coordinates":[-120.4769591,37.3069831]},"properties":{"station_name":"Merced","code":"MCD","routes":"San Joaquin","location":"Amtrak Station","address":"324 W. 24th St.","mode":"intercity_rail_station","source":"California_Rail_Stations.shp; PASS_OP = Amtrak"}},{"type":"Feature","geometry":{"type":"Point","coordinates":[-121.6569161,36.6781242]},"properties":{"station_name":"Salinas","code":"SNS","routes":"Coast Starlight","location":"Amtrak Station","address":"11 Station Place","mode":"intercity_rail_station","source":"California_Rail_Stations.shp; PASS_OP = Amtrak"}},{"type":"Feature","geometry":{"type":"Point","coordinates":[-120.1861703,39.327596]},"properties":{"station_name":"Truckee","code":"TRU","routes":"California Zephyr","location":"Amtrak Station","address":"10065 Donner Pass Road","mode":"intercity_rail_station","source":"California_Rail_Stations.shp; PASS_OP = Amtrak"}},{"type":"Feature","geometry":{"type":"Point","coordinates":[-117.8823955,33.8037221]},"properties":{"station_name":"Anaheim","code":"ANA","routes":"Pacific Surfliner","location":"Amtrak Station","address":"2150 E. Katella (Edison Stadium)","mode":"intercity_rail_station","source":"California_Rail_Stations.shp; PASS_OP = Amtrak"}},{"type":"Feature","geometry":{"type":"Point","coordinates":[-117.9223514,33.8688026]},"properties":{"station_name":"Fullerton","code":"FUL","routes":"Pacific Surfliner,Southwest Chief","location":"Amtrak/Metrolink Station","address":"120 E. Santa Fe Ave.","mode":"intercity_rail_station","source":"California_Rail_Stations.shp; PASS_OP = Amtrak"}},{"type":"Feature","geometry":{"type":"Point","coordinates":[-117.7326464,33.6568214]},"properties":{"station_name":"Irvine","code":"IRV","routes":"Pacific Surfliner","location":"Transportation Center","address":"15215 Barranca St.","mode":"intercity_rail_station","source":"California_Rail_Stations.shp; PASS_OP = Amtrak"}},{"type":"Feature","geometry":{"type":"Point","coordinates":[-117.6654864,33.5014338]},"properties":{"station_name":"San Juan Capistrano","code":"SNC","routes":"Pacific Surfliner","location":"Amtrak Station","address":"26701 Verdugo St.","mode":"intercity_rail_station","source":"California_Rail_Stations.shp; PASS_OP = Amtrak"}},{"type":"Feature","geometry":{"type":"Point","coordinates":[-117.8559962,33.7514977]},"properties":{"station_name":"Santa Ana","code":"SNA","routes":"Pacific Surfliner","location":"Regional Trans. Center","address":"1000 Santa Ana Blvd.","mode":"intercity_rail_station","source":"California_Rail_Stations.shp; PASS_OP = Amtrak"}},{"type":"Feature","geometry":{"type":"Point","coordinates":[-117.6198198,33.4196203]},"properties":{"station_name":"San Clemente Pier","code":"SNP","routes":"Pacific Surfliner","location":"Amtrak Station","address":"Municipal Pier","mode":"intercity_rail_station","source":"California_Rail_Stations.shp; PASS_OP = Amtrak"}},{"type":"Feature","geometry":{"type":"Point","coordinates":[-121.0825575,38.9041224]},"properties":{"station_name":"Auburn","code":"ARN","routes":"Capitol Corridor","location":"Amtrak Station","address":"277 Nevada St. at Fulweiler","mode":"intercity_rail_station","source":"California_Rail_Stations.shp; PASS_OP = Amtrak"}},{"type":"Feature","geometry":{"type":"Point","coordinates":[-121.2855474,38.7502995]},"properties":{"station_name":"Roseville","code":"RSV","routes":"California Zephyr,Capitol Corridor","location":"Amtrak Station","address":"201 Pacific St. at Church","mode":"intercity_rail_station","source":"California_Rail_Stations.shp; PASS_OP = Amtrak"}},{"type":"Feature","geometry":{"type":"Point","coordinates":[-120.9532003,39.0982594]},"properties":{"station_name":"Colfax","code":"COX","routes":"California Zephyr","location":"Amtrak Station","address":"99 Railroad St.","mode":"intercity_rail_station","source":"California_Rail_Stations.shp; PASS_OP = Amtrak"}},{"type":"Feature","geometry":{"type":"Point","coordinates":[-121.2372821,38.791274]},"properties":{"station_name":"Rocklin","code":"RLN","routes":"Capitol Corridor","location":"Amtrak Station","address":"Rocklin Rd. at Railroad Ave.","mode":"intercity_rail_station","source":"California_Rail_Stations.shp; PASS_OP = Amtrak"}},{"type":"Feature","geometry":{"type":"Point","coordinates":[-116.5483674,33.9022459]},"properties":{"station_name":"Palm Springs North","code":"PSN","routes":"Sunset Limited,Texas Eagle","location":"Amtrak Station","address":"Indian Ave. at UP Tracks & I-10","mode":"intercity_rail_station","source":"California_Rail_Stations.shp; PASS_OP = Amtrak"}},{"type":"Feature","geometry":{"type":"Point","coordinates":[-117.3697772,33.9755911]},"properties":{"station_name":"Riverside-Downtown","code":"RIV","routes":"Southwest Chief","location":"Metrolink Station","address":"4066 Vine St.","mode":"intercity_rail_station","source":"California_Rail_Stations.shp; PASS_OP = Amtrak"}},{"type":"Feature","geometry":{"type":"Point","coordinates":[-121.499654,38.5831843]},"properties":{"station_name":"Sacramento","code":"SAC","routes":"California Zephyr,Capitol Corridor,Coast Starlight,San Joaquin","location":"Amtrak Station","address":"401 \"I\" St. (at 5th)","mode":"intercity_rail_station","source":"California_Rail_Stations.shp; PASS_OP = Amtrak"}},{"type":"Feature","geometry":{"type":"Point","coordinates":[-114.6064397,34.8406738]},"properties":{"station_name":"Needles","code":"NDL","routes":"Southwest Chief","location":"Amtrak Station","address":"900 Front St.","mode":"intercity_rail_station","source":"California_Rail_Stations.shp; PASS_OP = Amtrak"}},{"type":"Feature","geometry":{"type":"Point","coordinates":[-117.3092581,34.1043358]},"properties":{"station_name":"San Bernardino","code":"SNB","routes":"Southwest Chief","location":"Amtrak/Metrolink Station","address":"1170 W. 3rd St.","mode":"intercity_rail_station","source":"California_Rail_Stations.shp; PASS_OP = Amtrak"}},{"type":"Feature","geometry":{"type":"Point","coordinates":[-117.3799721,33.1925429]},"properties":{"station_name":"Oceanside","code":"OSD","routes":"Pacific Surfliner","location":"Transportation Center","address":"235 S. Tremont Ave.","mode":"intercity_rail_station","source":"California_Rail_Stations.shp; PASS_OP = Amtrak"}},{"type":"Feature","geometry":{"type":"Point","coordinates":[-117.1995872,32.7548137]},"properties":{"station_name":"San Diego-Old Town","code":"OLT","routes":"Pacific Surfliner","location":"Transit Center","address":"4005 Taylor St., at Congress St.","mode":"intercity_rail_station","source":"California_Rail_Stations.shp; PASS_OP = Amtrak"}},{"type":"Feature","geometry":{"type":"Point","coordinates":[-117.1697677,32.7166773]},"properties":{"station_name":"San Diego","code":"SAN","routes":"Pacific Surfliner","location":"Sante Fe Depot","address":"1050 Kettner Blvd.","mode":"intercity_rail_station","source":"California_Rail_Stations.shp; PASS_OP = Amtrak"}},{"type":"Feature","geometry":{"type":"Point","coordinates":[-117.2706068,32.9918789]},"properties":{"station_name":"Solona Beach","code":"SOL","routes":"Pacific Surfliner","location":"Amtrak Station","address":"105 Cedros Ave.","mode":"intercity_rail_station","source":"California_Rail_Stations.shp; PASS_OP = Amtrak"}},{"type":"Feature","geometry":{"type":"Point","coordinates":[-121.272256,38.1338645]},"properties":{"station_name":"Lodi","code":"LOD","routes":"San Joaquin","location":"Transportation Center","address":"24 South Sacramento St.","mode":"intercity_rail_station","source":"California_Rail_Stations.shp; PASS_OP = Amtrak"}},{"type":"Feature","geometry":{"type":"Point","coordinates":[-121.2851159,37.9457278]},"properties":{"station_name":"Stockton","code":"SKN","routes":"San Joaquin","location":"Amtrak Station","address":"735 S. San Joaquin St.","mode":"intercity_rail_station","source":"California_Rail_Stations.shp; PASS_OP = Amtrak"}},{"type":"Feature","geometry":{"type":"Point","coordinates":[-121.2851791,37.9455914]},"properties":{"station_name":"Stockton","code":"SKT","routes":"San Joaquin","location":"ACE Station","address":"North Aurora at East Weber Streets","mode":"intercity_rail_station","source":"California_Rail_Stations.shp; PASS_OP = Amtrak"}},{"type":"Feature","geometry":{"type":"Point","coordinates":[-120.6555681,35.2754384]},"properties":{"station_name":"San Luis Obispo","code":"SLO","routes":"Coast Starlight,Pacific Surfliner","location":"Amtrak Station","address":"1011 Railroad Ave. at Santa Rosa","mode":"intercity_rail_station","source":"California_Rail_Stations.shp; PASS_OP = Amtrak"}},{"type":"Feature","geometry":{"type":"Point","coordinates":[-120.6289774,35.1218015]},"properties":{"station_name":"Grover Beach","code":"GVB","routes":"Pacific Surfliner","location":"Amtrak Station","address":"150 Highway 1 at Grand Ave.","mode":"intercity_rail_station","source":"California_Rail_Stations.shp; PASS_OP = Amtrak"}},{"type":"Feature","geometry":{"type":"Point","coordinates":[-120.6878966,35.6226258]},"properties":{"station_name":"Paso Robles","code":"PRB","routes":"Coast Starlight","location":"Amtrak Station","address":"Pine St. at 8th St.","mode":"intercity_rail_station","source":"California_Rail_Stations.shp; PASS_OP = Amtrak"}},{"type":"Feature","geometry":{"type":"Point","coordinates":[-119.5219554,34.3958805]},"properties":{"station_name":"Carpinteria","code":"CPN","routes":"Pacific Surfliner","location":"Amtrak Station","address":"475 Linden Ave.","mode":"intercity_rail_station","source":"California_Rail_Stations.shp; PASS_OP = Amtrak"}},{"type":"Feature","geometry":{"type":"Point","coordinates":[-120.5739402,34.9607102]},"properties":{"station_name":"Guadalupe","code":"GUA","routes":"Pacific Surfliner","location":"Amtrak Station","address":"330 Guadalupe St. (HWY 1)","mode":"intercity_rail_station","source":"California_Rail_Stations.shp; PASS_OP = Amtrak"}},{"type":"Feature","geometry":{"type":"Point","coordinates":[-120.60371,34.6826815]},"properties":{"station_name":"Surf/Lompoc","code":"LPS","routes":"Pacific Surfliner","location":"Amtrak Station","address":"End of Ocean Ave. at Surf Beach","mode":"intercity_rail_station","source":"California_Rail_Stations.shp; PASS_OP = Amtrak"}},{"type":"Feature","geometry":{"type":"Point","coordinates":[-117.8574924,33.7888715]},"properties":{"station_name":"Orange","code":"","routes":"Pacific Surfliner","location":"","address":"","mode":"intercity_rail_station","source":"California_Rail_Stations.shp; PASS_OP = Amtrak"}},{"type":"Feature","geometry":{"type":"Point","coordinates":[-117.6743584,33.5529106]},"properties":{"station_name":"Laguna Niguel/ Mission Viejo","code":"","routes":"Pacific Surfliner","location":"","address":"","mode":"intercity_rail_station","source":"California_Rail_Stations.shp; PASS_OP = Amtrak"}}]}