{"type":"FeatureCollection","name":"Amtrak Thruway bus stops","metadata":{"source":"Uploaded stops.shp","crs":"EPSG:4326"},"features":[{"type":"Feature","geometry":{"type":"Point","coordinates":[-117.877841,33.80286799999999]},"properties":{"map_id":"b3d1f150","stop_id":"bANA","stop_name":"Anaheim Bus Stop","lines":"Route 1 Fresno / Bekersfield - Los Angeles- SantaAna - Oceanside- San Diego (Inbound & Outbound)","mode":"thruway_stop","source":"Uploaded stops.shp"}},{"type":"Feature","geometry":{"type":"Point","coordinates":[-124.083805,40.868631999999984]},"properties":{"map_id":"b3d1f150","stop_id":"bARC","stop_name":"Arcata Transit Center Bus Stop","lines":"Route 7 Martinez-Napa-Santa Rosa-Arcata (Inbound & Outbound)","mode":"thruway_stop","source":"Uploaded stops.shp"}},{"type":"Feature","geometry":{"type":"Point","coordinates":[-120.664749,35.489000999999995]},"properties":{"map_id":"b3d1f150","stop_id":"bATA","stop_name":"Atascadero Bus Stop","lines":"Route 18 Santa Maria - San Luis Obispo - Handford (Inbound & Outbound)","mode":"thruway_stop","source":"Uploaded stops.shp"}},{"type":"Feature","geometry":{"type":"Point","coordinates":[-121.082882,38.903001999999994]},"properties":{"map_id":"b3d1f150","stop_id":"bARN","stop_name":"Auburn Bus Stop","lines":"Route 20 Sparks-Reno- Roseville- Lake Tahoe- Sacramento (Inbound & Outbound)","mode":"thruway_stop","source":"Uploaded stops.shp"}},{"type":"Feature","geometry":{"type":"Point","coordinates":[-119.008935,35.373169]},"properties":{"map_id":"b3d1f150","stop_id":"bBFD","stop_name":"Bakersfield Bus Stop","lines":"Route 10 Santa Barbara - Las Vegas (Inbound & Outbound), Route 19 Berkersfield - Inland Empire (Inbound & Outbound), Route 1c Bakersfield to Los Angeles / Santa Monica (Inbound & Outbound), Route 1 Fresno / Bekersfield - Los Angeles- SantaAna - Ocean","mode":"thruway_stop","source":"Uploaded stops.shp"}},{"type":"Feature","geometry":{"type":"Point","coordinates":[-119.007701,35.372182]},"properties":{"map_id":"b3d1f150","stop_id":"BFD","stop_name":"Bakersfield Station","lines":"Route 1 Fresno / Bekersfield - Los Angeles- SantaAna - Oceanside- San Diego (Inbound & Outbound)","mode":"thruway_stop","source":"Uploaded stops.shp"}},{"type":"Feature","geometry":{"type":"Point","coordinates":[-116.998835,34.891583999999995]},"properties":{"map_id":"b3d1f150","stop_id":"bBBS","stop_name":"Barstow Macdonal Restaurant Bus Stop","lines":"Route 10 Santa Barbara - Las Vegas (Inbound & Outbound)","mode":"thruway_stop","source":"Uploaded stops.shp"}},{"type":"Feature","geometry":{"type":"Point","coordinates":[-117.024673,34.90496100000001]},"properties":{"map_id":"b3d1f150","stop_id":"bBAR","stop_name":"Barstow Station Bus Stop","lines":"Route 10 Santa Barbara - Las Vegas (Inbound & Outbound)","mode":"thruway_stop","source":"Uploaded stops.shp"}},{"type":"Feature","geometry":{"type":"Point","coordinates":[-120.99861100000001,38.657833000000004]},"properties":{"map_id":"b3d1f150","stop_id":"bCPC","stop_name":"Cameron Park Bus Stop","lines":"Route 20c Sacramento - South Lake Tahoe (Inbound & Outbound)","mode":"thruway_stop","source":"Uploaded stops.shp"}},{"type":"Feature","geometry":{"type":"Point","coordinates":[-119.52307599999999,34.39669099999999]},"properties":{"map_id":"b3d1f150","stop_id":"bCPN","stop_name":"Carpinteria Bus Stop","lines":"Route 10 Santa Barbara - Las Vegas (Inbound & Outbound)","mode":"thruway_stop","source":"Uploaded stops.shp"}},{"type":"Feature","geometry":{"type":"Point","coordinates":[-121.84580000000001,39.723446]},"properties":{"map_id":"b3d1f150","stop_id":"bCIC","stop_name":"Chico Bus Stop","lines":"Route 3 Redding Sacramento Stockton (Inbound & Outbound)","mode":"thruway_stop","source":"Uploaded stops.shp"}},{"type":"Feature","geometry":{"type":"Point","coordinates":[-117.71677899999999,34.09424399999999]},"properties":{"map_id":"b3d1f150","stop_id":"bCLM","stop_name":"Claremont Bus Stop","lines":"Route 19 Berkersfield - Inland Empire (Inbound & Outbound)","mode":"thruway_stop","source":"Uploaded stops.shp"}},{"type":"Feature","geometry":{"type":"Point","coordinates":[-123.01183600000002,38.79815]},"properties":{"map_id":"b3d1f150","stop_id":"bCLV","stop_name":"Cloverdale Bus Stop","lines":"Route 7 Martinez-Napa-Santa Rosa-Arcata (Inbound & Outbound)","mode":"thruway_stop","source":"Uploaded stops.shp"}},{"type":"Feature","geometry":{"type":"Point","coordinates":[-119.699477,37.26211300000001]},"properties":{"map_id":"b3d1f150","stop_id":"bCGD","stop_name":"Coarsegold Bus Stop","lines":"Route 15b Fresno - Yosemite National Park (Inbound & Outbound)","mode":"thruway_stop","source":"Uploaded stops.shp"}},{"type":"Feature","geometry":{"type":"Point","coordinates":[-120.95312199999998,39.098859999999995]},"properties":{"map_id":"b3d1f150","stop_id":"bCOX","stop_name":"Colfax Bus Stop","lines":"Route 20 Sparks-Reno- Roseville- Lake Tahoe- Sacramento (Inbound & Outbound)","mode":"thruway_stop","source":"Uploaded stops.shp"}},{"type":"Feature","geometry":{"type":"Point","coordinates":[-121.73805399999999,38.543961999999986]},"properties":{"map_id":"b3d1f150","stop_id":"bDAV","stop_name":"Davis Bus Stop","lines":"Route 3 Redding Sacramento Stockton (Inbound & Outbound)","mode":"thruway_stop","source":"Uploaded stops.shp"}},{"type":"Feature","geometry":{"type":"Point","coordinates":[-121.89760300000002,37.70284699999999]},"properties":{"map_id":"b3d1f150","stop_id":"bDBP","stop_name":"Dublin Plesanton BART Station Bus Stop","lines":"Route 6 San Jose  - Stockton (Inbound & Outbound)","mode":"thruway_stop","source":"Uploaded stops.shp"}},{"type":"Feature","geometry":{"type":"Point","coordinates":[-121.480528,38.425305]},"properties":{"map_id":"b3d1f150","stop_id":"bEKG","stop_name":"Elk Grove Bus Stop","lines":"Route 3 Redding Sacramento Stockton (Inbound & Outbound)","mode":"thruway_stop","source":"Uploaded stops.shp"}},{"type":"Feature","geometry":{"type":"Point","coordinates":[-119.76574000000001,37.678457999999985]},"properties":{"map_id":"b3d1f150","stop_id":"bELP","stop_name":"El Portal Bus Stop","lines":"Route 15a Merced - Yosemite National Park (Inbound & Outbound)","mode":"thruway_stop","source":"Uploaded stops.shp"}},{"type":"Feature","geometry":{"type":"Point","coordinates":[-122.291808,37.84044599999999]},"properties":{"map_id":"b3d1f150","stop_id":"bEMY","stop_name":"Emeryville Ca Station Bus Stop","lines":"Route 99 Oakland-Emeryville-San Francisco (Inbound & Outbound)","mode":"thruway_stop","source":"Uploaded stops.shp"}},{"type":"Feature","geometry":{"type":"Point","coordinates":[-122.29172699999998,37.840463]},"properties":{"map_id":"b3d1f150","stop_id":"EMY","stop_name":"Emeryville Station","lines":"Route 17","mode":"thruway_stop","source":"Uploaded stops.shp"}},{"type":"Feature","geometry":{"type":"Point","coordinates":[-124.169336,40.800692]},"properties":{"map_id":"b3d1f150","stop_id":"bEKA","stop_name":"Eureka - Denny'S  Bus Stop","lines":"Route 7 Martinez-Napa-Santa Rosa-Arcata (Inbound & Outbound)","mode":"thruway_stop","source":"Uploaded stops.shp"}},{"type":"Feature","geometry":{"type":"Point","coordinates":[-118.91832299999999,34.396002999999986]},"properties":{"map_id":"b3d1f150","stop_id":"bFIL","stop_name":"Filmore Bus Stop","lines":"Route 10 Santa Barbara - Las Vegas (Inbound & Outbound)","mode":"thruway_stop","source":"Uploaded stops.shp"}},{"type":"Feature","geometry":{"type":"Point","coordinates":[-119.63875999999999,37.472758999999996]},"properties":{"map_id":"b3d1f150","stop_id":"bFSH","stop_name":"Fish Camp Bus Stop","lines":"Route 15b Fresno - Yosemite National Park (Inbound & Outbound)","mode":"thruway_stop","source":"Uploaded stops.shp"}},{"type":"Feature","geometry":{"type":"Point","coordinates":[-124.14663300000001,40.58351699999999]},"properties":{"map_id":"b3d1f150","stop_id":"bFTA","stop_name":"Fortuna Pepper Restaurant Bus Stop","lines":"Route 7 Martinez-Napa-Santa Rosa-Arcata (Inbound & Outbound)","mode":"thruway_stop","source":"Uploaded stops.shp"}},{"type":"Feature","geometry":{"type":"Point","coordinates":[-121.923637,37.539115]},"properties":{"map_id":"b3d1f150","stop_id":"bFRT","stop_name":"Fremont Vta Bus Stop","lines":"Route 6 San Jose  - Stockton (Inbound & Outbound)","mode":"thruway_stop","source":"Uploaded stops.shp"}},{"type":"Feature","geometry":{"type":"Point","coordinates":[-119.783281,36.73841]},"properties":{"map_id":"b3d1f150","stop_id":"bFNO","stop_name":"Fresno Bus Stop","lines":"Route 15b Fresno - Yosemite National Park (Inbound & Outbound), Route 1 Fresno / Bekersfield - Los Angeles- SantaAna - Oceanside- San Diego (Outbound)","mode":"thruway_stop","source":"Uploaded stops.shp"}},{"type":"Feature","geometry":{"type":"Point","coordinates":[-117.922641,33.86978699999999]},"properties":{"map_id":"b3d1f150","stop_id":"bFUL","stop_name":"Fullerton Bus Stop","lines":"Route 1 Fresno / Bekersfield - Los Angeles- SantaAna - Oceanside- San Diego (Inbound & Outbound)","mode":"thruway_stop","source":"Uploaded stops.shp"}},{"type":"Feature","geometry":{"type":"Point","coordinates":[-123.795237,40.097715]},"properties":{"map_id":"b3d1f150","stop_id":"bGBV","stop_name":"Garberville Bus Stop","lines":"Route 7 Martinez-Napa-Santa Rosa-Arcata (Inbound & Outbound)","mode":"thruway_stop","source":"Uploaded stops.shp"}},{"type":"Feature","geometry":{"type":"Point","coordinates":[-118.25866000000002,34.12439299999999]},"properties":{"map_id":"b3d1f150","stop_id":"bGLD","stop_name":"Glendale Bus Stop","lines":"Route 1 Fresno / Bekersfield - Los Angeles- SantaAna - Oceanside- San Diego (Inbound & Outbound)","mode":"thruway_stop","source":"Uploaded stops.shp"}},{"type":"Feature","geometry":{"type":"Point","coordinates":[-120.628588,35.12200299999999]},"properties":{"map_id":"b3d1f150","stop_id":"bGVB","stop_name":"Grover Beach-Amtrak","lines":"Route 18 Santa Maria - San Luis Obispo - Handford (Inbound & Outbound)","mode":"thruway_stop","source":"Uploaded stops.shp"}},{"type":"Feature","geometry":{"type":"Point","coordinates":[-119.65196499999999,36.326111]},"properties":{"map_id":"b3d1f150","stop_id":"bHNF","stop_name":"Hanford Bus Stop","lines":"Route 18 Santa Maria - San Luis Obispo - Handford (Inbound & Outbound), Route 1 Fresno / Bekersfield - Los Angeles- SantaAna - Oceanside- San Diego (Outbound)","mode":"thruway_stop","source":"Uploaded stops.shp"}},{"type":"Feature","geometry":{"type":"Point","coordinates":[-122.869476,38.606847]},"properties":{"map_id":"b3d1f150","stop_id":"bHEA","stop_name":"Healdsburg Bus Stop","lines":"Route 7 Martinez-Napa-Santa Rosa-Arcata (Inbound & Outbound)","mode":"thruway_stop","source":"Uploaded stops.shp"}},{"type":"Feature","geometry":{"type":"Point","coordinates":[-118.351682,34.19265999999999]},"properties":{"map_id":"b3d1f150","stop_id":"bBUR","stop_name":"Hollywood Burbank Airport Bus Stop","lines":"Route 1c Bakersfield to Los Angeles / Santa Monica (Inbound & Outbound), Route 1 Fresno / Bekersfield - Los Angeles- SantaAna - Oceanside- San Diego (Inbound & Outbound)","mode":"thruway_stop","source":"Uploaded stops.shp"}},{"type":"Feature","geometry":{"type":"Point","coordinates":[-124.081496,40.873346999999995]},"properties":{"map_id":"b3d1f150","stop_id":"bHSU","stop_name":"Humbolt State University Bus Stop","lines":"Route 7 Martinez-Napa-Santa Rosa-Arcata (Inbound & Outbound)","mode":"thruway_stop","source":"Uploaded stops.shp"}},{"type":"Feature","geometry":{"type":"Point","coordinates":[-117.73252400000001,33.656636999999996]},"properties":{"map_id":"b3d1f150","stop_id":"bIRV","stop_name":"Irvine Bus Stop","lines":"Route 1 Fresno / Bekersfield - Los Angeles- SantaAna - Oceanside- San Diego (Inbound & Outbound)","mode":"thruway_stop","source":"Uploaded stops.shp"}},{"type":"Feature","geometry":{"type":"Point","coordinates":[-119.05396700000001,37.812726999999995]},"properties":{"map_id":"b3d1f150","stop_id":"bJNL","stop_name":"June Lake-Ski Area Bus Stop","lines":"Route 15 Mammoth Lakes- Yosemite National Park (Inbound & Outbound)","mode":"thruway_stop","source":"Uploaded stops.shp"}},{"type":"Feature","geometry":{"type":"Point","coordinates":[-118.266601,34.232001999999994]},"properties":{"map_id":"b3d1f150","stop_id":"bLCA","stop_name":"La Crescenta Bus Stop","lines":"Route 19 Berkersfield - Inland Empire (Inbound & Outbound)","mode":"thruway_stop","source":"Uploaded stops.shp"}},{"type":"Feature","geometry":{"type":"Point","coordinates":[-115.164579,36.06857399999999]},"properties":{"map_id":"b3d1f150","stop_id":"bLAS","stop_name":"Las Vegas Greyhound Station Bus Stop","lines":"Route 10 Santa Barbara - Las Vegas (Inbound & Outbound)","mode":"thruway_stop","source":"Uploaded stops.shp"}},{"type":"Feature","geometry":{"type":"Point","coordinates":[-115.16374000000002,36.068798]},"properties":{"map_id":"b3d1f150","stop_id":"bLVT","stop_name":"Las Vegas South Strip Bus Stop","lines":"Route 10 Santa Barbara - Las Vegas (Inbound & Outbound)","mode":"thruway_stop","source":"Uploaded stops.shp"}},{"type":"Feature","geometry":{"type":"Point","coordinates":[-123.482022,39.686633]},"properties":{"map_id":"b3d1f150","stop_id":"bLTV","stop_name":"Laytonville Bus Stop","lines":"Route 7 Martinez-Napa-Santa Rosa-Arcata (Inbound & Outbound)","mode":"thruway_stop","source":"Uploaded stops.shp"}},{"type":"Feature","geometry":{"type":"Point","coordinates":[-119.118644,37.95532099999999]},"properties":{"map_id":"b3d1f150","stop_id":"bLVN","stop_name":"Lee Vining-Lake View Lodge Bus Stop","lines":"Route 15 Mammoth Lakes- Yosemite National Park (Inbound & Outbound)","mode":"thruway_stop","source":"Uploaded stops.shp"}},{"type":"Feature","geometry":{"type":"Point","coordinates":[-123.727963,39.878238]},"properties":{"map_id":"b3d1f150","stop_id":"bLEG","stop_name":"Leggett Bus Stop","lines":"Route 7 Martinez-Napa-Santa Rosa-Arcata (Inbound & Outbound)","mode":"thruway_stop","source":"Uploaded stops.shp"}},{"type":"Feature","geometry":{"type":"Point","coordinates":[-121.76684,37.68490299999999]},"properties":{"map_id":"b3d1f150","stop_id":"bLIV","stop_name":"Livermore Transit Center Bus Stop","lines":"Route 6 San Jose  - Stockton (Inbound & Outbound)","mode":"thruway_stop","source":"Uploaded stops.shp"}},{"type":"Feature","geometry":{"type":"Point","coordinates":[-121.272228,38.133107]},"properties":{"map_id":"b3d1f150","stop_id":"bLOD","stop_name":"Lodi Bus Stop","lines":"Route 3 Redding Sacramento Stockton (Inbound & Outbound)","mode":"thruway_stop","source":"Uploaded stops.shp"}},{"type":"Feature","geometry":{"type":"Point","coordinates":[-118.237249,34.05666999999999]},"properties":{"map_id":"b3d1f150","stop_id":"bLOS","stop_name":"Los Angles Bus Stop","lines":"Route 1c Bakersfield to Los Angeles / Santa Monica (Outbound), Route 1 Fresno / Bekersfield - Los Angeles- SantaAna - Oceanside- San Diego (Inbound & Outbound)","mode":"thruway_stop","source":"Uploaded stops.shp"}},{"type":"Feature","geometry":{"type":"Point","coordinates":[-119.03891600000001,37.65138999999999]},"properties":{"map_id":"b3d1f150","stop_id":"bMMK","stop_name":"Mammoth Lakes- Mammoth Mtn Inn Bus Stop","lines":"Route 15 Mammoth Lakes- Yosemite National Park (Inbound & Outbound)","mode":"thruway_stop","source":"Uploaded stops.shp"}},{"type":"Feature","geometry":{"type":"Point","coordinates":[-119.62151399999999,37.50142399999999]},"properties":{"map_id":"b3d1f150","stop_id":"bYOM","stop_name":"Mariposa Grove","lines":"Route 15b Fresno - Yosemite National Park (Inbound & Outbound)","mode":"thruway_stop","source":"Uploaded stops.shp"}},{"type":"Feature","geometry":{"type":"Point","coordinates":[-119.96623499999998,37.48567200000001]},"properties":{"map_id":"b3d1f150","stop_id":"bMRM","stop_name":"Mariposa Midtown Bus Stop","lines":"Route 15a Merced - Yosemite National Park (Inbound & Outbound)","mode":"thruway_stop","source":"Uploaded stops.shp"}},{"type":"Feature","geometry":{"type":"Point","coordinates":[-119.974277,37.49120799999999]},"properties":{"map_id":"b3d1f150","stop_id":"bMRP","stop_name":"Mariposa Park And Ride Bus Stop","lines":"Route 15a Merced - Yosemite National Park (Inbound & Outbound)","mode":"thruway_stop","source":"Uploaded stops.shp"}},{"type":"Feature","geometry":{"type":"Point","coordinates":[-122.138834,38.01906799999999]},"properties":{"map_id":"b3d1f150","stop_id":"bMTZ","stop_name":"Martinez Bus Stop","lines":"Route 7 Martinez-Napa-Santa Rosa-Arcata (Inbound & Outbound)","mode":"thruway_stop","source":"Uploaded stops.shp"}},{"type":"Feature","geometry":{"type":"Point","coordinates":[-121.59723899999999,39.14371299999999]},"properties":{"map_id":"b3d1f150","stop_id":"bMRV","stop_name":"Marysville Bus Stop","lines":"Route 3 Redding Sacramento Stockton (Inbound & Outbound)","mode":"thruway_stop","source":"Uploaded stops.shp"}},{"type":"Feature","geometry":{"type":"Point","coordinates":[-120.476796,37.30730599999999]},"properties":{"map_id":"b3d1f150","stop_id":"bMCD","stop_name":"Merced Station Bus Stop","lines":"Route 15a Merced - Yosemite National Park (Inbound & Outbound)","mode":"thruway_stop","source":"Uploaded stops.shp"}},{"type":"Feature","geometry":{"type":"Point","coordinates":[-119.920175,37.543955]},"properties":{"map_id":"b3d1f150","stop_id":"bMDP","stop_name":"Midpines Bus Stop","lines":"Route 15a Merced - Yosemite National Park (Inbound & Outbound)","mode":"thruway_stop","source":"Uploaded stops.shp"}},{"type":"Feature","geometry":{"type":"Point","coordinates":[-118.173538,35.052687]},"properties":{"map_id":"b3d1f150","stop_id":"bMOJ","stop_name":"Mohave Bus Stop","lines":"Route 10 Santa Barbara - Las Vegas (Inbound & Outbound)","mode":"thruway_stop","source":"Uploaded stops.shp"}},{"type":"Feature","geometry":{"type":"Point","coordinates":[-122.280373,38.297566]},"properties":{"map_id":"b3d1f150","stop_id":"bNAP","stop_name":"Napa Bus Stop","lines":"Route 7 Martinez-Napa-Santa Rosa-Arcata (Inbound & Outbound)","mode":"thruway_stop","source":"Uploaded stops.shp"}},{"type":"Feature","geometry":{"type":"Point","coordinates":[-119.64620599999999,37.33549899999999]},"properties":{"map_id":"b3d1f150","stop_id":"bOAH","stop_name":"Oakhurst Bus Stop","lines":"Route 15b Fresno - Yosemite National Park (Inbound & Outbound)","mode":"thruway_stop","source":"Uploaded stops.shp"}},{"type":"Feature","geometry":{"type":"Point","coordinates":[-117.379138,33.19305799999999]},"properties":{"map_id":"b3d1f150","stop_id":"bOSD","stop_name":"Oceanside Bus Stop","lines":"Route 1 Fresno / Bekersfield - Los Angeles- SantaAna - Oceanside- San Diego (Inbound & Outbound)","mode":"thruway_stop","source":"Uploaded stops.shp"}},{"type":"Feature","geometry":{"type":"Point","coordinates":[-121.572089,39.52001800000001]},"properties":{"map_id":"b3d1f150","stop_id":"bORV","stop_name":"Oroville Bus Stop","lines":"Route 3 Redding Sacramento Stockton (Inbound & Outbound)","mode":"thruway_stop","source":"Uploaded stops.shp"}},{"type":"Feature","geometry":{"type":"Point","coordinates":[-119.17616499999998,34.199058]},"properties":{"map_id":"b3d1f150","stop_id":"bOXN","stop_name":"Oxnard Bus Stop","lines":"Route 10 Santa Barbara - Las Vegas (Inbound & Outbound)","mode":"thruway_stop","source":"Uploaded stops.shp"}},{"type":"Feature","geometry":{"type":"Point","coordinates":[-118.14125099999998,34.14307399999999]},"properties":{"map_id":"b3d1f150","stop_id":"bPAS","stop_name":"Pasadena Bus Stop","lines":"Route 19 Berkersfield - Inland Empire (Inbound & Outbound)","mode":"thruway_stop","source":"Uploaded stops.shp"}},{"type":"Feature","geometry":{"type":"Point","coordinates":[-120.68789,35.62268899999999]},"properties":{"map_id":"b3d1f150","stop_id":"bPRB","stop_name":"Paso Robles Station Bus Stop","lines":"Route 18 Santa Maria - San Luis Obispo - Handford (Inbound & Outbound)","mode":"thruway_stop","source":"Uploaded stops.shp"}},{"type":"Feature","geometry":{"type":"Point","coordinates":[-122.63579800000001,38.236508]},"properties":{"map_id":"b3d1f150","stop_id":"bPTC","stop_name":"Petaluma Bus Stop","lines":"Route 7 Martinez-Napa-Santa Rosa-Arcata (Inbound & Outbound)","mode":"thruway_stop","source":"Uploaded stops.shp"}},{"type":"Feature","geometry":{"type":"Point","coordinates":[-120.78947899999999,38.733015]},"properties":{"map_id":"b3d1f150","stop_id":"bPCV","stop_name":"Placerville Bus Stop","lines":"Route 20c Sacramento - South Lake Tahoe (Inbound & Outbound)","mode":"thruway_stop","source":"Uploaded stops.shp"}},{"type":"Feature","geometry":{"type":"Point","coordinates":[-122.23471900000001,40.178466]},"properties":{"map_id":"b3d1f150","stop_id":"bRBF","stop_name":"Red Bluff Bus Stop","lines":"Route 3 Redding Sacramento Stockton (Inbound & Outbound)","mode":"thruway_stop","source":"Uploaded stops.shp"}},{"type":"Feature","geometry":{"type":"Point","coordinates":[-122.39277700000001,40.583485]},"properties":{"map_id":"b3d1f150","stop_id":"bRDD","stop_name":"Redding Bus Stop","lines":"Route 3 Redding Sacramento Stockton (Inbound & Outbound)","mode":"thruway_stop","source":"Uploaded stops.shp"}},{"type":"Feature","geometry":{"type":"Point","coordinates":[-119.811373,39.528732]},"properties":{"map_id":"b3d1f150","stop_id":"bRNO","stop_name":"Reno Bus Stop","lines":"Route 20 Sparks-Reno- Roseville- Lake Tahoe- Sacramento (Inbound & Outbound)","mode":"thruway_stop","source":"Uploaded stops.shp"}},{"type":"Feature","geometry":{"type":"Point","coordinates":[-117.369905,33.975857]},"properties":{"map_id":"b3d1f150","stop_id":"bRIV","stop_name":"Riverside Bus Stop","lines":"Route 19 Berkersfield - Inland Empire (Inbound & Outbound)","mode":"thruway_stop","source":"Uploaded stops.shp"}},{"type":"Feature","geometry":{"type":"Point","coordinates":[-121.237271,38.791007]},"properties":{"map_id":"b3d1f150","stop_id":"bRLN","stop_name":"Rocklin Bus Stop","lines":"Route 20 Sparks-Reno- Roseville- Lake Tahoe- Sacramento (Inbound & Outbound)","mode":"thruway_stop","source":"Uploaded stops.shp"}},{"type":"Feature","geometry":{"type":"Point","coordinates":[-122.70979099999998,38.34731299999999]},"properties":{"map_id":"b3d1f150","stop_id":"bRPC","stop_name":"Rohnert Park Bus Stop","lines":"Route 7 Martinez-Napa-Santa Rosa-Arcata (Inbound & Outbound)","mode":"thruway_stop","source":"Uploaded stops.shp"}},{"type":"Feature","geometry":{"type":"Point","coordinates":[-121.286201,38.75003399999999]},"properties":{"map_id":"b3d1f150","stop_id":"bRSV","stop_name":"Roseville Bus Stop","lines":"Route 20 Sparks-Reno- Roseville- Lake Tahoe- Sacramento (Inbound & Outbound)","mode":"thruway_stop","source":"Uploaded stops.shp"}},{"type":"Feature","geometry":{"type":"Point","coordinates":[-121.50113099999999,38.582278]},"properties":{"map_id":"b3d1f150","stop_id":"bSAC","stop_name":"Sacramento Bus Stop","lines":"Route 20c Sacramento - South Lake Tahoe (Inbound & Outbound), Route 20 Sparks-Reno- Roseville- Lake Tahoe- Sacramento (Inbound & Outbound), Route 3 Redding Sacramento Stockton (Inbound & Outbound)","mode":"thruway_stop","source":"Uploaded stops.shp"}},{"type":"Feature","geometry":{"type":"Point","coordinates":[-121.49486399999999,38.57686499999999]},"properties":{"map_id":"b3d1f150","stop_id":"bSCS","stop_name":"Sacramento State Capitol Bus Stop","lines":"Route 3 Redding Sacramento Stockton (Inbound & Outbound)","mode":"thruway_stop","source":"Uploaded stops.shp"}},{"type":"Feature","geometry":{"type":"Point","coordinates":[-117.31222099999998,34.10412899999999]},"properties":{"map_id":"b3d1f150","stop_id":"bSNB","stop_name":"San Bernadino Bus Stop","lines":"Route 19 Berkersfield - Inland Empire (Inbound & Outbound)","mode":"thruway_stop","source":"Uploaded stops.shp"}},{"type":"Feature","geometry":{"type":"Point","coordinates":[-117.16950499999999,32.71685799999999]},"properties":{"map_id":"b3d1f150","stop_id":"bSAN","stop_name":"San Diego Bus Stop","lines":"Route 1 Fresno / Bekersfield - Los Angeles- SantaAna - Oceanside- San Diego (Inbound & Outbound)","mode":"thruway_stop","source":"Uploaded stops.shp"}},{"type":"Feature","geometry":{"type":"Point","coordinates":[-122.39849999999998,37.788499999999985]},"properties":{"map_id":"b3d1f150","stop_id":"bSFC","stop_name":"San Francisco - Transbay Terminal Bus Stop","lines":"Route 99 Oakland-Emeryville-San Francisco (Inbound & Outbound)","mode":"thruway_stop","source":"Uploaded stops.shp"}},{"type":"Feature","geometry":{"type":"Point","coordinates":[-121.902439,37.329932]},"properties":{"map_id":"b3d1f150","stop_id":"bSJC","stop_name":"San Jose-Station Bus Stop","lines":"Route 6 San Jose  - Stockton (Inbound & Outbound)","mode":"thruway_stop","source":"Uploaded stops.shp"}},{"type":"Feature","geometry":{"type":"Point","coordinates":[-117.66391499999999,33.50087299999999]},"properties":{"map_id":"b3d1f150","stop_id":"bSNC","stop_name":"San Juan Capistrano Bus Stop","lines":"Route 1 Fresno / Bekersfield - Los Angeles- SantaAna - Oceanside- San Diego (Outbound)","mode":"thruway_stop","source":"Uploaded stops.shp"}},{"type":"Feature","geometry":{"type":"Point","coordinates":[-120.65454799999999,35.276554999999995]},"properties":{"map_id":"b3d1f150","stop_id":"bSLO","stop_name":"San Luis Obispo-Amtrak","lines":"Route 18 Santa Maria - San Luis Obispo - Handford (Inbound & Outbound)","mode":"thruway_stop","source":"Uploaded stops.shp"}},{"type":"Feature","geometry":{"type":"Point","coordinates":[-120.65775199999999,35.300284000000005]},"properties":{"map_id":"b3d1f150","stop_id":"bSLP","stop_name":"San Luis Obispo-Cal Poly","lines":"Route 18 Santa Maria - San Luis Obispo - Handford (Inbound & Outbound)","mode":"thruway_stop","source":"Uploaded stops.shp"}},{"type":"Feature","geometry":{"type":"Point","coordinates":[-117.85655599999998,33.751734]},"properties":{"map_id":"b3d1f150","stop_id":"bSNA","stop_name":"Santa Ana Bus Stop","lines":"Route 1 Fresno / Bekersfield - Los Angeles- SantaAna - Oceanside- San Diego (Inbound & Outbound)","mode":"thruway_stop","source":"Uploaded stops.shp"}},{"type":"Feature","geometry":{"type":"Point","coordinates":[-119.69289500000001,34.41366299999999]},"properties":{"map_id":"b3d1f150","stop_id":"bSBA","stop_name":"Santa Barbara Station Bus Stop","lines":"Route 10 Santa Barbara - Las Vegas (Inbound & Outbound)","mode":"thruway_stop","source":"Uploaded stops.shp"}},{"type":"Feature","geometry":{"type":"Point","coordinates":[-119.84824,34.415220999999995]},"properties":{"map_id":"b3d1f150","stop_id":"bSBU","stop_name":"Santa Barbara-Ucsb Bus Stop","lines":"Route 10 Santa Barbara - Las Vegas (Inbound & Outbound)","mode":"thruway_stop","source":"Uploaded stops.shp"}},{"type":"Feature","geometry":{"type":"Point","coordinates":[-118.52735000000001,34.37942699999999]},"properties":{"map_id":"b3d1f150","stop_id":"bNHL","stop_name":"Santa Clarita -Newhall Bus Stop","lines":"Route 1c Bakersfield to Los Angeles / Santa Monica (Inbound & Outbound), Route 1 Fresno / Bekersfield - Los Angeles- SantaAna - Oceanside- San Diego (Inbound & Outbound)","mode":"thruway_stop","source":"Uploaded stops.shp"}},{"type":"Feature","geometry":{"type":"Point","coordinates":[-122.024648,36.970914]},"properties":{"map_id":"b3d1f150","stop_id":"bSCZ","stop_name":"Santa Cruze Metro Center Bus Stop","lines":"Route 6 San Jose  - Stockton (Inbound & Outbound)","mode":"thruway_stop","source":"Uploaded stops.shp"}},{"type":"Feature","geometry":{"type":"Point","coordinates":[-120.41625999999998,34.951151]},"properties":{"map_id":"b3d1f150","stop_id":"bSAT","stop_name":"Santa Maria-Ihop Bus Stop","lines":"Route 18 Santa Maria - San Luis Obispo - Handford (Inbound & Outbound)","mode":"thruway_stop","source":"Uploaded stops.shp"}},{"type":"Feature","geometry":{"type":"Point","coordinates":[-118.49463500000002,34.012702999999995]},"properties":{"map_id":"b3d1f150","stop_id":"bSMN","stop_name":"Santa Monica Pier Bus Stop","lines":"Route 1c Bakersfield to Los Angeles / Santa Monica (Inbound & Outbound)","mode":"thruway_stop","source":"Uploaded stops.shp"}},{"type":"Feature","geometry":{"type":"Point","coordinates":[-119.069093,34.346215]},"properties":{"map_id":"b3d1f150","stop_id":"bSAP","stop_name":"Santa Paula Bus Stop","lines":"Route 10 Santa Barbara - Las Vegas (Inbound & Outbound)","mode":"thruway_stop","source":"Uploaded stops.shp"}},{"type":"Feature","geometry":{"type":"Point","coordinates":[-122.72762499999999,38.455634999999994]},"properties":{"map_id":"b3d1f150","stop_id":"bSRC","stop_name":"Santa Rosa Bus Stop","lines":"Route 7 Martinez-Napa-Santa Rosa-Arcata (Inbound & Outbound)","mode":"thruway_stop","source":"Uploaded stops.shp"}},{"type":"Feature","geometry":{"type":"Point","coordinates":[-122.02792599999998,37.047382]},"properties":{"map_id":"b3d1f150","stop_id":"bSVY","stop_name":"Scotts Valley Transit Ctr. Bus Stop","lines":"Route 6 San Jose  - Stockton (Inbound & Outbound)","mode":"thruway_stop","source":"Uploaded stops.shp"}},{"type":"Feature","geometry":{"type":"Point","coordinates":[-117.27127899999999,32.992983]},"properties":{"map_id":"b3d1f150","stop_id":"bSOL","stop_name":"Solano Beach Bus Stop","lines":"Route 1 Fresno / Bekersfield - Los Angeles- SantaAna - Oceanside- San Diego (Inbound & Outbound)","mode":"thruway_stop","source":"Uploaded stops.shp"}},{"type":"Feature","geometry":{"type":"Point","coordinates":[-120.004983,38.913091]},"properties":{"map_id":"b3d1f150","stop_id":"bSLT","stop_name":"South Lake Tahoe Bus Stop","lines":"Route 20c Sacramento - South Lake Tahoe (Inbound & Outbound)","mode":"thruway_stop","source":"Uploaded stops.shp"}},{"type":"Feature","geometry":{"type":"Point","coordinates":[-119.75662400000002,39.53456599999999]},"properties":{"map_id":"b3d1f150","stop_id":"bSPX","stop_name":"Sparks Bus Stop","lines":"Route 20 Sparks-Reno- Roseville- Lake Tahoe- Sacramento (Inbound & Outbound)","mode":"thruway_stop","source":"Uploaded stops.shp"}},{"type":"Feature","geometry":{"type":"Point","coordinates":[-119.942042,38.95776099999999]},"properties":{"map_id":"b3d1f150","stop_id":"bSLH","stop_name":"Stateline Transit Center Bus Stop","lines":"Route 20c Sacramento - South Lake Tahoe (Inbound & Outbound)","mode":"thruway_stop","source":"Uploaded stops.shp"}},{"type":"Feature","geometry":{"type":"Point","coordinates":[-121.278807,37.957072000000004]},"properties":{"map_id":"b3d1f150","stop_id":"bSKT","stop_name":"Stockton- Robert J Cabral Bus Stop","lines":"Route 3 Redding Sacramento Stockton (Inbound & Outbound), Route 6 San Jose  - Stockton (Outbound)","mode":"thruway_stop","source":"Uploaded stops.shp"}},{"type":"Feature","geometry":{"type":"Point","coordinates":[-121.284919,37.945054]},"properties":{"map_id":"b3d1f150","stop_id":"bSKN","stop_name":"Stockton- San Joaquin Street Bus Stop","lines":"Route 3 Redding Sacramento Stockton (Inbound & Outbound), Route 6 San Jose  - Stockton (Inbound & Outbound)","mode":"thruway_stop","source":"Uploaded stops.shp"}},{"type":"Feature","geometry":{"type":"Point","coordinates":[-118.451711,35.132503]},"properties":{"map_id":"b3d1f150","stop_id":"bTEH","stop_name":"Tehachapi Bus Stop","lines":"Route 10 Santa Barbara - Las Vegas (Inbound & Outbound)","mode":"thruway_stop","source":"Uploaded stops.shp"}},{"type":"Feature","geometry":{"type":"Point","coordinates":[-121.435976,37.76147199999999]},"properties":{"map_id":"b3d1f150","stop_id":"bTRA","stop_name":"Tracy Wendy'S Restaurant Bus Stop","lines":"Route 6 San Jose  - Stockton (Inbound & Outbound)","mode":"thruway_stop","source":"Uploaded stops.shp"}},{"type":"Feature","geometry":{"type":"Point","coordinates":[-120.185726,39.327603999999994]},"properties":{"map_id":"b3d1f150","stop_id":"bTRU","stop_name":"Truckee Bus Stop","lines":"Route 20 Sparks-Reno- Roseville- Lake Tahoe- Sacramento (Inbound & Outbound)","mode":"thruway_stop","source":"Uploaded stops.shp"}},{"type":"Feature","geometry":{"type":"Point","coordinates":[-123.19900099999998,39.15254399999999]},"properties":{"map_id":"b3d1f150","stop_id":"bUKH","stop_name":"Ukiah Bus Stop","lines":"Route 7 Martinez-Napa-Santa Rosa-Arcata (Inbound & Outbound)","mode":"thruway_stop","source":"Uploaded stops.shp"}},{"type":"Feature","geometry":{"type":"Point","coordinates":[-122.259293,38.100027]},"properties":{"map_id":"b3d1f150","stop_id":"bVAL","stop_name":"Vallejo Bus Stop","lines":"Route 7 Martinez-Napa-Santa Rosa-Arcata (Inbound & Outbound)","mode":"thruway_stop","source":"Uploaded stops.shp"}},{"type":"Feature","geometry":{"type":"Point","coordinates":[-118.44850600000001,34.210595]},"properties":{"map_id":"b3d1f150","stop_id":"bVNC","stop_name":"Van Nuys Bus Stop","lines":"Route 1c Bakersfield to Los Angeles / Santa Monica (Inbound & Outbound)","mode":"thruway_stop","source":"Uploaded stops.shp"}},{"type":"Feature","geometry":{"type":"Point","coordinates":[-119.299885,34.276952]},"properties":{"map_id":"b3d1f150","stop_id":"bVEC","stop_name":"Ventura Bus Stop","lines":"Route 10 Santa Barbara - Las Vegas (Inbound & Outbound)","mode":"thruway_stop","source":"Uploaded stops.shp"}},{"type":"Feature","geometry":{"type":"Point","coordinates":[-118.44906199999998,34.06874399999999]},"properties":{"map_id":"b3d1f150","stop_id":"bWES","stop_name":"Westwood - Ucla Bus Stop","lines":"Route 1c Bakersfield to Los Angeles / Santa Monica (Inbound & Outbound)","mode":"thruway_stop","source":"Uploaded stops.shp"}},{"type":"Feature","geometry":{"type":"Point","coordinates":[-119.649124,37.869702]},"properties":{"map_id":"b3d1f150","stop_id":"bYOW","stop_name":"White Wolf Lodge Bus Stop","lines":"Route 15 Mammoth Lakes- Yosemite National Park (Inbound & Outbound)","mode":"thruway_stop","source":"Uploaded stops.shp"}},{"type":"Feature","geometry":{"type":"Point","coordinates":[-123.350958,39.41242700000001]},"properties":{"map_id":"b3d1f150","stop_id":"bWTS","stop_name":"Willits Bus Stop","lines":"Route 7 Martinez-Napa-Santa Rosa-Arcata (Inbound & Outbound)","mode":"thruway_stop","source":"Uploaded stops.shp"}},{"type":"Feature","geometry":{"type":"Point","coordinates":[-119.65802099999999,37.537713999999994]},"properties":{"map_id":"b3d1f150","stop_id":"bYOH","stop_name":"Wowona Store Bus Stop","lines":"Route 15b Fresno - Yosemite National Park (Inbound & Outbound)","mode":"thruway_stop","source":"Uploaded stops.shp"}},{"type":"Feature","geometry":{"type":"Point","coordinates":[-119.79734699999999,37.753257999999995]},"properties":{"map_id":"b3d1f150","stop_id":"bYOF","stop_name":"Yosemite Crane Flat Bus Stop","lines":"Route 15 Mammoth Lakes- Yosemite National Park (Inbound & Outbound)","mode":"thruway_stop","source":"Uploaded stops.shp"}},{"type":"Feature","geometry":{"type":"Point","coordinates":[-119.570615,37.73773]},"properties":{"map_id":"b3d1f150","stop_id":"bYOC","stop_name":"Yosemite Curry Village","lines":"Route 15a Merced - Yosemite National Park (Inbound & Outbound)","mode":"thruway_stop","source":"Uploaded stops.shp"}},{"type":"Feature","geometry":{"type":"Point","coordinates":[-119.37347800000002,37.872294]},"properties":{"map_id":"b3d1f150","stop_id":"bYOT","stop_name":"Yosemite Tuolomne Meadows-Visitor Center Bus Stop","lines":"Route 15 Mammoth Lakes- Yosemite National Park (Inbound & Outbound)","mode":"thruway_stop","source":"Uploaded stops.shp"}},{"type":"Feature","geometry":{"type":"Point","coordinates":[-119.599379,37.74227]},"properties":{"map_id":"b3d1f150","stop_id":"bYOS","stop_name":"Yosemite Valley Lodge Bus Stop","lines":"Route 15a Merced - Yosemite National Park (Inbound & Outbound)","mode":"thruway_stop","source":"Uploaded stops.shp"}},{"type":"Feature","geometry":{"type":"Point","coordinates":[-119.586329,37.748048]},"properties":{"map_id":"b3d1f150","stop_id":"bYOV","stop_name":"Yosemite Visitor Center Bus Stop","lines":"Route 15a Merced - Yosemite National Park (Inbound & Outbound), Route 15b Fresno - Yosemite National Park (Inbound & Outbound), Route 15 Mammoth Lakes- Yosemite National Park (Inbound & Outbound)","mode":"thruway_stop","source":"Uploaded stops.shp"}},{"type":"Feature","geometry":{"type":"Point","coordinates":[-116.54560646754882,33.823120823372975]},"properties":{"map_id":"","stop_id":"bPSS","stop_name":"Palm Springs","lines":"Route 39 (Cabazon - Palm Springs - Indio)","mode":"thruway_stop","source":"Uploaded stops.shp"}},{"type":"Feature","geometry":{"type":"Point","coordinates":[-116.39860682051031,33.723264185061055]},"properties":{"map_id":"","stop_id":"bPDC","stop_name":"Palm Desert","lines":"Route 39 (Cabazon - Palm Springs - Indio)","mode":"thruway_stop","source":"Uploaded stops.shp"}},{"type":"Feature","geometry":{"type":"Point","coordinates":[-121.65573397336972,36.6790542405696]},"properties":{"map_id":"","stop_id":"bSNR","stop_name":"Salinas","lines":"Route 68 (Salinas - Monterey - Carmel)","mode":"thruway_stop","source":"Uploaded stops.shp"}},{"type":"Feature","geometry":{"type":"Point","coordinates":[-121.80199950583096,36.654956975236196]},"properties":{"map_id":"","stop_id":"bMYU","stop_name":"Seaside-Marina","lines":"Route 68 (Salinas - Monterey - Carmel)","mode":"thruway_stop","source":"Uploaded stops.shp"}},{"type":"Feature","geometry":{"type":"Point","coordinates":[-121.8784949376237,36.59273879022232]},"properties":{"map_id":"","stop_id":"bMYH","stop_name":"Monterey","lines":"Route 68 (Salinas - Monterey - Carmel)","mode":"thruway_stop","source":"Uploaded stops.shp"}},{"type":"Feature","geometry":{"type":"Point","coordinates":[-121.89201400611294,36.59517544612726]},"properties":{"map_id":"","stop_id":"bMYT","stop_name":"Monterey","lines":"Route 68 (Salinas - Monterey - Carmel)","mode":"thruway_stop","source":"Uploaded stops.shp"}},{"type":"Feature","geometry":{"type":"Point","coordinates":[-121.89274973773139,36.59790736276518]},"properties":{"map_id":"","stop_id":"bMRY","stop_name":"Monterey","lines":"Route 68 (Salinas - Monterey - Carmel)","mode":"thruway_stop","source":"Uploaded stops.shp"}},{"type":"Feature","geometry":{"type":"Point","coordinates":[-121.89385333515908,36.5989779523636]},"properties":{"map_id":"","stop_id":"bMYM","stop_name":"Monterey","lines":"Route 68 (Salinas - Monterey - Carmel)","mode":"thruway_stop","source":"Uploaded stops.shp"}},{"type":"Feature","geometry":{"type":"Point","coordinates":[-121.90199236618834,36.617987672373545]},"properties":{"map_id":"","stop_id":"bMYA","stop_name":"Monterey","lines":"Route 68 (Salinas - Monterey - Carmel)","mode":"thruway_stop","source":"Uploaded stops.shp"}},{"type":"Feature","geometry":{"type":"Point","coordinates":[-121.91330423982225,36.53283194991635]},"properties":{"map_id":"","stop_id":"bCRM","stop_name":"Carmel","lines":"Route 68 (Salinas - Monterey - Carmel)","mode":"thruway_stop","source":"Uploaded stops.shp"}},{"type":"Feature","geometry":{"type":"Point","coordinates":[-121.13316874410688,36.20110570738792]},"properties":{"map_id":"","stop_id":"bKGC","stop_name":"King City","lines":"Route 17 (Santa Barbara - San Luis Obispo - Oakland)","mode":"thruway_stop","source":"Uploaded stops.shp"}},{"type":"Feature","geometry":{"type":"Point","coordinates":[-120.19601884746099,34.60961433066381]},"properties":{"map_id":"","stop_id":"bBUL","stop_name":"Buellton","lines":"Route 17 (Santa Barbara - San Luis Obispo - Oakland)","mode":"thruway_stop","source":"Uploaded stops.shp"}},{"type":"Feature","geometry":{"type":"Point","coordinates":[-120.14348600510955,34.593553436777064]},"properties":{"map_id":"","stop_id":"bSLV","stop_name":"Solvang","lines":"Route 17 (Santa Barbara - San Luis Obispo - Oakland)","mode":"thruway_stop","source":"Uploaded stops.shp"}},{"type":"Feature","geometry":{"type":"Point","coordinates":[-116.2913872354228,33.70916884861226]},"properties":{"map_id":"","stop_id":"bLQT","stop_name":"La Quinta","lines":"Route 39 (Cabazon - Palm Springs - Indio)","mode":"thruway_stop","source":"Uploaded stops.shp"}},{"type":"Feature","geometry":{"type":"Point","coordinates":[-116.50843213758223,33.81867081802561]},"properties":{"map_id":"","stop_id":"bPSP","stop_name":"Palm Springs","lines":"Route 39 (Cabazon - Palm Springs - Indio)","mode":"thruway_stop","source":"Uploaded stops.shp"}},{"type":"Feature","geometry":{"type":"Point","coordinates":[-116.81654269879377,33.92517485820737]},"properties":{"map_id":"","stop_id":"bCBZ","stop_name":"Cabazon","lines":"Route 39 (Cabazon - Palm Springs - Indio)","mode":"thruway_stop","source":"Uploaded stops.shp"}},{"type":"Feature","geometry":{"type":"Point","coordinates":[-120.83748653655988,37.056396384824644]},"properties":{"map_id":"","stop_id":"bLBO","stop_name":"Los Banos","lines":"Route 40 San Jose-Gilroy-Los Banos-Merced","mode":"thruway_stop","source":"Uploaded stops.shp"}},{"type":"Feature","geometry":{"type":"Point","coordinates":[-124.28840259999998,42.05485530000004]},"properties":{"map_id":"","stop_id":"bBKO","stop_name":"Brookings","lines":"POINT SouthWest (Klamath Falls-Brookings)","mode":"thruway_stop","source":"Uploaded stops.shp"}},{"type":"Feature","geometry":{"type":"Point","coordinates":[-124.19271339999993,41.75262895000002]},"properties":{"map_id":"","stop_id":"bCRC","stop_name":"Cresent City","lines":"POINT SouthWest (Klamath Falls-Brookings)","mode":"thruway_stop","source":"Uploaded stops.shp"}},{"type":"Feature","geometry":{"type":"Point","coordinates":[-124.07192959999995,41.792952580000076]},"properties":{"map_id":"","stop_id":"bHIO","stop_name":"Hiouchi","lines":"POINT SouthWest (Klamath Falls-Brookings)","mode":"thruway_stop","source":"Uploaded stops.shp"}},{"type":"Feature","geometry":{"type":"Point","coordinates":[-123.96918409999992,41.84570048000004]},"properties":{"map_id":"","stop_id":"bGSQ","stop_name":"Gasquet","lines":"POINT SouthWest (Klamath Falls-Brookings)","mode":"thruway_stop","source":"Uploaded stops.shp"}},{"type":"Feature","geometry":{"type":"Point","coordinates":[-123.70297000026534,42.067609999701794]},"properties":{"map_id":"","stop_id":"bOBR","stop_name":"O'Brien","lines":"POINT SouthWest (Klamath Falls-Brookings)","mode":"thruway_stop","source":"Uploaded stops.shp"}},{"type":"Feature","geometry":{"type":"Point","coordinates":[-123.32434129999997,42.44281281000008]},"properties":{"map_id":"","stop_id":"bCVJ","stop_name":"Cave Junction","lines":"POINT SouthWest (Klamath Falls-Brookings)","mode":"thruway_stop","source":"Uploaded stops.shp"}},{"type":"Feature","geometry":{"type":"Point","coordinates":[-122.68960799999995,42.185728560000015]},"properties":{"map_id":"","stop_id":"bGTP","stop_name":"Grant Pass","lines":"POINT SouthWest (Klamath Falls-Brookings)","mode":"thruway_stop","source":"Uploaded stops.shp"}},{"type":"Feature","geometry":{"type":"Point","coordinates":[-122.87152809999998,42.324487150000024]},"properties":{"map_id":"","stop_id":"bAHL","stop_name":"Ashland","lines":"POINT SouthWest (Klamath Falls-Brookings)","mode":"thruway_stop","source":"Uploaded stops.shp"}},{"type":"Feature","geometry":{"type":"Point","coordinates":[-122.87419209999997,42.36896953000005]},"properties":{"map_id":"","stop_id":"bMFA","stop_name":"Medford","lines":"POINT SouthWest (Klamath Falls-Brookings)","mode":"thruway_stop","source":"Uploaded stops.shp"}},{"type":"Feature","geometry":{"type":"Point","coordinates":[-121.87980189999993,42.28069180000005]},"properties":{"map_id":"","stop_id":"bMFR","stop_name":"Medford Airport","lines":"POINT SouthWest (Klamath Falls-Brookings)","mode":"thruway_stop","source":"Uploaded stops.shp"}},{"type":"Feature","geometry":{"type":"Point","coordinates":[-121.78090520822246,42.232173696712096]},"properties":{"map_id":"","stop_id":"bRNY","stop_name":"Running Y","lines":"POINT SouthWest (Klamath Falls-Brookings)","mode":"thruway_stop","source":"Uploaded stops.shp"}},{"type":"Feature","geometry":{"type":"Point","coordinates":[-123.64670099999995,42.16300424000009]},"properties":{"map_id":"","stop_id":"bKFS","stop_name":"Klamath Falls","lines":"POINT SouthWest (Klamath Falls-Brookings)","mode":"thruway_stop","source":"Uploaded stops.shp"}},{"type":"Feature","geometry":{"type":"Point","coordinates":[-116.2314384734857,33.70960673650531]},"properties":{"map_id":"","stop_id":"bIDO","stop_name":"Indio","lines":"Route 39 (Cabazon - Palm Springs - Indio)","mode":"thruway_stop","source":"Uploaded stops.shp"}},{"type":"Feature","geometry":{"type":"Point","coordinates":[-115.11207304460527,36.147991925422815]},"properties":{"map_id":"","stop_id":"bLVS","stop_name":"Las Vegas","lines":"Route 10 Santa Barbara - Las Vegas","mode":"thruway_stop","source":"Uploaded stops.shp"}},{"type":"Feature","geometry":{"type":"Point","coordinates":[-121.59111382209402,38.67131222102435]},"properties":{"map_id":"","stop_id":"bSAA","stop_name":"Sacramento International Airport","lines":"Route 5","mode":"thruway_stop","source":"Uploaded stops.shp"}},{"type":"Feature","geometry":{"type":"Point","coordinates":[-122.1539661345437,39.16762681443584]},"properties":{"map_id":"","stop_id":"bWMD","stop_name":"Williams","lines":"Route 5","mode":"thruway_stop","source":"Uploaded stops.shp"}},{"type":"Feature","geometry":{"type":"Point","coordinates":[-122.20259186031116,39.749240353104184]},"properties":{"map_id":"","stop_id":"bOLD","stop_name":"Orland","lines":"Route 5","mode":"thruway_stop","source":"Uploaded stops.shp"}}]}